{
    "links": {
        "self": "http://www.neowsapp.com/rest/v1/neo/3748473?api_key=iIulBulltgU6a56xZRHN4H3l9WmuAYTsLGpBGhQ2"
    },
    "id": "3748473",
    "neo_reference_id": "3748473",
    "name": "(2016 FV12)",
    "designation": "2016 FV12",
    "nasa_jpl_url": "http://ssd.jpl.nasa.gov/sbdb.cgi?sstr=3748473",
    "absolute_magnitude_h": 25.4,
    "estimated_diameter": {
        "kilometers": {
            "estimated_diameter_min": 0.022108281,
            "estimated_diameter_max": 0.0494356193
        },
        "meters": {
            "estimated_diameter_min": 22.1082810359,
            "estimated_diameter_max": 49.435619262
        },
        "miles": {
            "estimated_diameter_min": 0.0137374447,
            "estimated_diameter_max": 0.0307178602
        },
        "feet": {
            "estimated_diameter_min": 72.5337327539,
            "estimated_diameter_max": 162.1903570994
        }
    },
    "is_potentially_hazardous_asteroid": false,
    "close_approach_data": [
        {
            "close_approach_date": "2016-03-10",
            "close_approach_date_full": "2016-Mar-10 01:10",
            "epoch_date_close_approach": 1457572200000,
            "relative_velocity": {
                "kilometers_per_second": "16.6217247264",
                "kilometers_per_hour": "59838.2090149406",
                "miles_per_hour": "37181.1360404224"
            },
            "miss_distance": {
                "astronomical": "0.0376865915",
                "lunar": "14.6600840935",
                "kilometers": "5637833.815960105",
                "miles": "3503187.488275249"
            },
            "orbiting_body": "Earth"
        }
    ],
    "orbital_data": {
        "orbit_id": "3",
        "orbit_determination_date": "2017-04-06 08:27:11",
        "first_observation_date": "2016-03-28",
        "last_observation_date": "2016-03-31",
        "data_arc_in_days": 3,
        "observations_used": 13,
        "orbit_uncertainty": "9",
        "minimum_orbit_intersection": ".0152274",
        "jupiter_tisserand_invariant": "4.086",
        "epoch_osculation": "2457477.5",
        "eccentricity": ".604598347982628",
        "semi_major_axis": "1.62499302189288",
        "inclination": "6.983637643881594",
        "ascending_node_longitude": "344.8431632447209",
        "orbital_period": "756.6162725003917",
        "perihelion_distance": ".6425249253731464",
        "perihelion_argument": "100.9765949789386",
        "aphelion_distance": "2.607461118412614",
        "perihelion_time": "2457408.742638088573",
        "mean_anomaly": "32.71493250642571",
        "mean_motion": ".4758026136687585",
        "equinox": "J2000",
        "orbit_class": {
            "orbit_class_type": "APO",
            "orbit_class_description": "Near-Earth asteroid orbits which cross the Earth’s orbit similar to that of 1862 Apollo",
            "orbit_class_range": "a (semi-major axis) > 1.0 AU; q (perihelion) < 1.017 AU"
        }
    },
    "is_sentry_object": false
}